[{"OBJECT_NAME":"LEO 1 (LEO VANTAGE 1)","OBJECT_ID":"2018-004C","EPOCH":"2026-03-09T16:57:06.140448","MEAN_MOTION":14.67184901,"ECCENTRICITY":0.03529424,"INCLINATION":99.2469,"RA_OF_ASC_NODE":334.0284,"ARG_OF_PERICENTER":24.854,"MEAN_ANOMALY":336.9207,"EPHEMERIS_TYPE":0,"CLASSIFICATION_TYPE":"U","NORAD_CAT_ID":43113,"ELEMENT_SET_NO":999,"REV_AT_EPOCH":42289,"BSTAR":0.000396029,"MEAN_MOTION_DOT":5.709e-5,"MEAN_MOTION_DDOT":0},{"OBJECT_NAME":"KUIPER-00218","OBJECT_ID":"2026-030S","EPOCH":"2026-03-09T15:22:12.930816","MEAN_MOTION":15.35202151,"ECCENTRICITY":0.0006939,"INCLINATION":51.8829,"RA_OF_ASC_NODE":219.4934,"ARG_OF_PERICENTER":50.9637,"MEAN_ANOMALY":309.1966,"EPHEMERIS_TYPE":0,"CLASSIFICATION_TYPE":"U","NORAD_CAT_ID":67780,"ELEMENT_SET_NO":999,"REV_AT_EPOCH":508,"BSTAR":0.00064584,"MEAN_MOTION_DOT":0.00022104,"MEAN_MOTION_DDOT":0}]
